ONEWEB-0385             
1 49311U 21090AJ  22014.58334491  .00063987  00000+0  64216-2 0  9999
2 49311  87.1966 260.8239 0008354 280.4308 359.3967 14.90973126  3537
ONEWEB-0386             
1 49312U 21090AK  22014.58334491  .00069725  00000+0  69886-2 0  9994
2 49312  87.2053 260.9281 0004418 311.4293 218.8173 14.91009495  3548
ONEWEB-0387             
1 49313U 21090AL  22014.58334491  .00061322  00000+0  61532-2 0  9990
2 49313  87.2056 260.9204 0007997 316.2075  81.1916 14.90996486  3554
ONEWEB-0388             
1 49314U 21090AM  22014.58334491  .00000015  00000+0  00000+0 0  9993
2 49314  87.8227 265.9901 0007811 351.4472 316.2435 13.60601702  3410
ONEWEB-0389             
1 50469U 21132A   22014.58334491 -.01079395  00000+0 -32656-1 0  9997
2 50469  87.3945 349.8011 0018612 239.5897 176.9996 15.36670610  3622
ONEWEB-0390             
1 50470U 21132B   22014.58334491 -.01100826  00000+0 -35744-1 0  9994
2 50470  87.3878 349.8055 0016981 230.7415 120.2006 15.34563993  4058
ONEWEB-0391             
1 50471U 21132C   22014.58334491 -.01054313  00000+0 -31696-1 0  9996
2 50471  87.3943 349.7976 0019379 238.4371 194.1624 15.37232701  3635
ONEWEB-0392             
1 50472U 21132D   22014.58334491 -.01102986  00000+0 -35230-1 0  9995
2 50472  87.3896 349.8057 0016410 233.9511 134.0491 15.35096201  3639
ONEWEB-0393             
1 50473U 21132E   22014.58334491 -.01093373  00000+0 -33396-1 0  9996
2 50473  87.3927 349.8003 0018178 240.6580 167.1596 15.36420109  3621
ONEWEB-0394             
1 50474U 21132F   22014.58334491 -.01103983  00000+0 -38088-1 0  9999
2 50474  87.3823 349.8135 0020672 233.7431  49.3132 15.32570956  4038
ONEWEB-0395             
1 50475U 21132G   22014.58334491 -.01162702  00000+0 -39144-1 0  9998
2 50475  87.4033 349.8337 0016872 236.7145 329.1180 15.33583947  4036
ONEWEB-0396             
1 50476U 21132H   22014.58334491 -.01105300  00000+0 -37843-1 0  9994
2 50476  87.3855 349.8205 0020943 230.6174  60.1870 15.32808960  3627
ONEWEB-0397             
1 50477U 21132J   22014.58334491 -.01115141  00000+0 -39174-1 0  9998
2 50477  87.3822 349.8194 0021049 236.7718  29.0038 15.32015919  3600
ONEWEB-0398             
1 50478U 21132K   22014.58334491 -.01192649  00000+0 -44916-1 0  9997
2 50478  87.4081 349.8369 0017661 238.4086 333.9987 15.30072824  3623
ONEWEB-0399             
1 50479U 21132L   22014.58334491 -.01172812  00000+0 -44423-1 0  9991
2 50479  87.4097 349.8280 0017289 237.0618 325.8766 15.29845570  4030
ONEWEB-0400             
1 50480U 21132M   22014.58334491 -.01075609  00000+0 -31631-1 0  9996
2 50480  87.3988 349.7987 0020094 230.6703 232.8560 15.37949042  3626
ONEWEB-0401             
1 50481U 21132N   22014.58334491 -.01100582  00000+0 -36733-1 0  9994
2 50481  87.3846 349.8112 0019264 228.8933  89.9368 15.33644920  3622
ONEWEB-0402             
1 50482U 21132P   22014.58334491 -.01117968  00000+0 -36051-1 0  9994
2 50482  87.3903 349.8130 0016699 232.5012 127.5208 15.34828405  3610
ONEWEB-0403             
1 50483U 21132Q   22014.58334491 -.01111018  00000+0 -35305-1 0  9996
2 50483  87.3909 349.8076 0016034 236.3857 135.4147 15.35284204  3634
ONEWEB-0404             
1 50484U 21132R   22014.58334491 -.01199298  00000+0 -44857-1 0  9995
2 50484  87.4067 349.8284 0017999 239.4897 340.7120 15.30302945  4036
ONEWEB-0405             
1 50485U 21132S   22014.58334491 -.01111770  00000+0 -36465-1 0  9991
2 50485  87.3885 349.8126 0017313 229.3808 113.5971 15.34267511  3604
ONEWEB-0406             
1 50486U 21132T   22014.58334491 -.01112836  00000+0 -36902-1 0  9992
2 50486  87.3875 349.8137 0018759 228.4329  98.0286 15.33891583  3617
ONEWEB-0407             
1 50487U 21132U   22014.58334491 -.01113061  00000+0 -34430-1 0  9998
2 50487  87.3910 349.8004 0017155 240.1794 156.4905 15.36100703  3625
ONEWEB-0409             
1 50488U 21132V   22014.58334491 -.01189830  00000+0 -44143-1 0  9998
2 50488  87.4063 349.8289 0018552 241.3601 344.4282 15.30525900  4030
ONEWEB-0412             
1 50489U 21132W   22014.58334491 -.00053009  00000+0 -15620-2 0  9995
2 50489  87.3996 349.8234 0020096 239.5446  22.6038 15.35096990  3611
ONEWEB-0413             
1 50490U 21132X   22014.58334491 -.01083470  00000+0 -31165-1 0  9994
2 50490  87.3978 349.7925 0019705 227.5920 251.8856 15.38656195  3636
ONEWEB-0414             
1 50491U 21132Y   22014.58334491 -.01103409  00000+0 -34426-1 0  9993
2 50491  87.3935 349.8086 0016761 239.0126 149.3078 15.35819820  3623
ONEWEB-0417             
1 50492U 21132Z   22014.58334491 -.01102828  00000+0 -37155-1 0  9990
2 50492  87.3854 349.8155 0020239 231.2547  69.9611 15.33329954  3629
ONEWEB-0418             
1 50493U 21132AA  22014.58334491 -.01089838  00000+0 -37880-1 0  9991
2 50493  87.3856 349.8263 0020679 235.3921  38.2379 15.32300434  4038
ONEWEB-0419             
1 50494U 21132AB  22014.58334491 -.01059290  00000+0 -32052-1 0  9997
2 50494  87.3943 349.7969 0019234 238.9874 185.9903 15.37052156  4054
ONEWEB-0420             
1 50495U 21132AC  22014.58334491 -.00534778  00000+0 -14522-1 0  9998
2 50495  87.3990 349.7870 0016828 217.4941 318.2719 15.39528155  4067
ONEWEB-0421             
1 50496U 21132AD  22014.58334491 -.01011894  00000+0 -28297-1 0  9993
2 50496  87.3989 349.7903 0017676 218.9563 301.5598 15.39365348  4064
ONEWEB-0424             
1 50497U 21132AE  22014.58334491 -.00053341  00000+0 -15816-2 0  9990
2 50497  87.4002 349.8238 0019475 239.5183  14.5329 15.34915842  3629
ONEWEB-0426             
1 50498U 21132AF  22014.58334491 -.01112484  00000+0 -35039-1 0  9994
2 50498  87.3884 349.7994 0016405 237.7280 142.1612 15.35556059  3617
ONEWEB-0427             
1 50499U 21132AG  22014.58334491 -.00310922  00000+0 -82051-2 0  9998
2 50499  87.4013 349.7887 0016417 216.9110 325.5510 15.39560181  3617
ONEWEB-0429             
1 50500U 21132AH  22014.58334491 -.01122440  00000+0 -32160-1 0  9993
2 50500  87.3943 349.7853 0019785 229.1551 242.9929 15.38412284  4054
ONEWEB-0430             
1 50501U 21132AJ  22014.58334491 -.01122143  00000+0 -40561-1 0  9998
2 50501  87.3806 349.8262 0019014 240.5494 355.1140 15.31176501  3611
ONEWEB-0432             
1 50502U 21132AK  22014.58334491 -.00787231  00000+0 -21790-1 0  9996
2 50502  87.4013 349.7918 0017282 218.2305 308.4411 15.39448253  3614
ONEWEB-0440             
1 50503U 21132AL  22014.58334491 -.01116516  00000+0 -32694-1 0  9995
2 50503  87.3940 349.7914 0019895 232.3930 223.9892 15.37730254  3631
ONEWEB-0450             
1 50504U 21132AM  22014.58334491 -.01116391  00000+0 -37509-1 0  9997
2 50504  87.3874 349.8172 0020515 230.1807  82.1174 15.33442543  3607
